NORAD_CAT_ID,OBJECT_NAME,OBJECT_TYPE,EPOCH,MEAN_MOTION,ECCENTRICITY,INCLINATION,RA_OF_ASC_NODE,ARG_OF_PERICENTER,MEAN_ANOMALY,BSTAR,MEAN_MOTION_DOT,MEAN_MOTION_DDOT,TLE_LINE0,TLE_LINE1,TLE_LINE2,SEMIMAJOR_AXIS,PERIOD,APOGEE,PERIGEE,DECAYED
52123.0,STARLINK-3725,PAYLOAD,2024-07-22 07:42:44,15.08842322,0.0001411,53.2151,221.7659,90.4556,269.6598,4.7678e-05,4.71e-06,0.0,0 STARLINK-3725,1 52123U 22029AM  24204.32134814  .00000471  00000-0  47678-4 0  9994,2 52123  53.2151 221.7659 0001411  90.4556 269.6598 15.08842322131050,6917.873,95.437,540.714,538.762,0.0
52123.0,STARLINK-3725,PAYLOAD,2024-07-23 10:44:17,15.08842545,0.0001442,53.2151,216.7121,86.7398,273.3759,2.8326e-05,1.63e-06,0.0,0 STARLINK-3725,1 52123U 22029AM  24205.44742854  .00000163  00000-0  28326-4 0  9994,2 52123  53.2151 216.7121 0001442  86.7398 273.3759 15.08842545131221,6917.873,95.437,540.735,538.74,0.0
52123.0,STARLINK-3725,PAYLOAD,2024-07-24 04:13:32,15.0883601,0.0001437,53.2148,213.4399,86.5431,273.5725,1.3471e-07,-2.86e-06,0.0,0 STARLINK-3725,1 52123U 22029AM  24206.17607455 -.00000286  00000-0  13471-6 0  9996,2 52123  53.2148 213.4399 0001437  86.5431 273.5725 15.08836010131335,6917.893,95.438,540.752,538.763,0.0
52123.0,STARLINK-3725,PAYLOAD,2024-07-24 10:35:05,15.08835094,0.0001439,53.215,212.2511,85.7983,274.3174,-5.961e-06,-3.83e-06,0.0,0 STARLINK-3725,1 52123U 22029AM  24206.44103592 -.00000383  00000-0 -59610-5 0  9992,2 52123  53.2150 212.2511 0001439  85.7983 274.3174 15.08835094131378,6917.895,95.438,540.756,538.765,0.0
52123.0,STARLINK-3725,PAYLOAD,2024-07-25 05:39:42,15.08840476,0.0001408,53.2151,208.6828,84.5292,275.586,5.5971e-05,6.03e-06,0.0,0 STARLINK-3725,1 52123U 22029AM  24207.23591139  .00000603  00000-0  55971-4 0  9996,2 52123  53.2151 208.6828 0001408  84.5292 275.5860 15.08840476131493,6917.879,95.438,540.718,538.77,0.0
52123.0,STARLINK-3725,PAYLOAD,2024-07-25 10:25:52,15.08841573,0.0001427,53.2153,207.7907,84.7119,275.4036,6.3671e-05,7.26e-06,0.0,0 STARLINK-3725,1 52123U 22029AM  24207.43463043  .00000726  00000-0  63671-4 0  9992,2 52123  53.2153 207.7907 0001427  84.7119 275.4036 15.08841573131521,6917.876,95.437,540.728,538.753,0.0
52123.0,STARLINK-3725,PAYLOAD,2024-07-25 19:58:11,15.08832545,0.0001423,53.2155,206.0061,90.8357,269.2799,4.0422e-05,3.55e-06,0.0,0 STARLINK-3725,1 52123U 22029AM  24207.83207671  .00000355  00000-0  40422-4 0  9996,2 52123  53.2155 206.0061 0001423  90.8357 269.2799 15.08832545131586,6917.903,95.438,540.753,538.784,0.0
52123.0,STARLINK-3725,PAYLOAD,2024-07-26 05:30:30,15.08833151,0.0001413,53.2154,204.2219,91.2849,268.8305,2.5764e-05,1.22e-06,0.0,0 STARLINK-3725,1 52123U 22029AM  24208.22951844  .00000122  00000-0  25764-4 0  9992,2 52123  53.2154 204.2219 0001413  91.2849 268.8305 15.08833151131649,6917.901,95.438,540.744,538.789,0.0
52123.0,STARLINK-3725,PAYLOAD,2024-07-26 22:59:44,15.08838605,0.0001479,53.2158,200.9507,89.1545,270.9616,1.8307e-05,3e-08,0.0,0 STARLINK-3725,1 52123U 22029AM  24208.95815666  .00000003  00000-0  18307-4 0  9996,2 52123  53.2158 200.9507 0001479  89.1545 270.9616 15.08838605131757,6917.885,95.438,540.773,538.726,0.0
52123.0,STARLINK-3725,PAYLOAD,2024-07-27 03:45:53,15.08841456,0.0001457,53.2157,200.059,90.2525,269.8634,1.9743e-05,2.6e-07,0.0,0 STARLINK-3725,1 52123U 22029AM  24209.15687466  .00000026  00000-0  19743-4 0  9994,2 52123  53.2157 200.0590 0001457  90.2525 269.8634 15.08841456131784,6917.876,95.437,540.749,538.733,0.0
52123.0,STARLINK-3725,PAYLOAD,2024-07-27 05:21:17,15.08842003,0.0001465,53.2156,199.7616,90.0267,270.0893,2.5078e-05,1.11e-06,0.0,0 STARLINK-3725,1 52123U 22029AM  24209.22311410  .00000111  00000-0  25078-4 0  9998,2 52123  53.2156 199.7616 0001465  90.0267 270.0893 15.08842003131797,6917.874,95.437,540.753,538.726,0.0
52123.0,STARLINK-3725,PAYLOAD,2024-07-27 16:28:59,15.08840608,0.0001472,53.2158,197.6799,84.9676,275.1484,3.5166e-05,2.72e-06,0.0,0 STARLINK-3725,1 52123U 22029AM  24209.68679455  .00000272  00000-0  35166-4 0  9991,2 52123  53.2158 197.6799 0001472  84.9676 275.1484 15.08840608131861,6917.879,95.438,540.762,538.725,0.0
52123.0,STARLINK-3725,PAYLOAD,2024-07-28 05:12:04,15.08834398,0.0001397,53.2151,195.3015,86.5626,273.5526,4.2101e-05,3.82e-06,0.0,0 STARLINK-3725,1 52123U 22029AM  24210.21671933  .00000382  00000-0  42101-4 0  9994,2 52123  53.2151 195.3015 0001397  86.5626 273.5526 15.08834398131946,6917.898,95.438,540.729,538.796,0.0
52123.0,STARLINK-3725,PAYLOAD,2024-07-28 06:47:27,15.08835795,0.0001397,53.2151,195.004,86.1207,273.9944,4.0673e-05,3.59e-06,0.0,0 STARLINK-3725,1 52123U 22029AM  24210.28295862  .00000359  00000-0  40673-4 0  9990,2 52123  53.2151 195.0040 0001397  86.1207 273.9944 15.08835795131953,6917.893,95.438,540.725,538.792,0.0
52123.0,STARLINK-3725,PAYLOAD,2024-07-29 05:02:51,15.08843151,0.0001393,53.2147,190.8407,87.1964,272.9188,5.7861e-05,6.33e-06,0.0,0 STARLINK-3725,1 52123U 22029AM  24211.21031417  .00000633  00000-0  57861-4 0  9990,2 52123  53.2147 190.8407 0001393  87.1964 272.9188 15.08843151132095,6917.871,95.437,540.699,538.772,0.0
52123.0,STARLINK-3725,PAYLOAD,2024-07-29 16:10:33,15.0883967,0.0001342,53.2155,188.7597,90.2116,269.903,1.7216e-05,-1.4e-07,0.0,0 STARLINK-3725,1 52123U 22029AM  24211.67399738 -.00000014  00000-0  17216-4 0  9997,2 52123  53.2155 188.7597 0001342  90.2116 269.9030 15.08839670132169,6917.881,95.438,540.675,538.818,0.0
52123.0,STARLINK-3725,PAYLOAD,2024-07-30 04:53:38,15.0883935,0.000141,53.2162,186.3782,98.8876,261.2276,4.3832e-05,4.1e-06,0.0,0 STARLINK-3725,1 52123U 22029AM  24212.20391718  .00000410  00000-0  43832-4 0  9999,2 52123  53.2162 186.3782 0001410  98.8876 261.2276 15.08839350132241,6917.882,95.438,540.723,538.772,0.0
52123.0,STARLINK-3725,PAYLOAD,2024-07-31 04:44:24,15.08847068,0.0001378,53.2158,181.9177,100.2164,259.8983,9.2189e-05,1.18e-05,0.0,0 STARLINK-3725,1 52123U 22029AM  24213.19750954  .00001180  00000-0  92189-4 0  9993,2 52123  53.2158 181.9177 0001378 100.2164 259.8983 15.08847068132395,6917.859,95.437,540.677,538.771,0.0
52123.0,STARLINK-3725,PAYLOAD,2024-07-31 22:13:40,15.0883286,0.0001315,53.2162,178.6487,94.3348,265.7795,-7.2746e-06,-4.04e-06,0.0,0 STARLINK-3725,1 52123U 22029AM  24213.92616347 -.00000404  00000-0 -72746-5 0  9999,2 52123  53.2162 178.6487 0001315  94.3348 265.7795 15.08832860132509,6917.902,95.438,540.677,538.858,0.0
52123.0,STARLINK-3725,PAYLOAD,2024-08-01 04:35:13,15.08833667,0.0001272,53.2162,177.461,89.3011,270.8126,-3.6467e-05,-8.68e-06,0.0,0 STARLINK-3725,1 52123U 22029AM  24214.19112549 -.00000868  00000-0 -36467-4 0  9997,2 52123  53.2162 177.4610 0001272  89.3011 270.8126 15.08833667132542,6917.9,95.438,540.645,538.885,0.0
52123.0,STARLINK-3725,PAYLOAD,2024-08-01 22:04:28,15.0882029,0.000161,53.2166,174.191,114.9403,245.1756,5.7016e-05,6.19e-06,0.0,0 STARLINK-3725,1 52123U 22029AM  24214.91977191  .00000619  00000-0  57016-4 0  9994,2 52123  53.2166 174.1910 0001610 114.9403 245.1756 15.08820290132653,6917.941,95.439,540.919,538.692,0.0
52123.0,STARLINK-3725,PAYLOAD,2024-08-02 07:36:46,15.08843423,0.0001309,53.2155,172.405,101.4904,258.6235,1.7947e-05,-2e-08,0.0,0 STARLINK-3725,1 52123U 22029AM  24215.31720244 -.00000002  00000-0  17947-4 0  9990,2 52123  53.2155 172.4050 0001309 101.4904 258.6235 15.08843423132710,6917.87,95.437,540.64,538.829,0.0
52123.0,STARLINK-3725,PAYLOAD,2024-08-02 13:58:19,15.08841267,0.00012,53.215,171.2148,85.7524,274.3605,2.3756e-07,-2.84e-06,0.0,0 STARLINK-3725,1 52123U 22029AM  24215.58216483 -.00000284  00000-0  23756-6 0  9993,2 52123  53.2150 171.2148 0001200  85.7524 274.3605 15.08841267132756,6917.877,95.437,540.572,538.911,0.0
52123.0,STARLINK-3725,PAYLOAD,2024-08-03 04:16:47,15.08835046,0.000132,53.2159,168.5394,87.7799,272.3345,0.00014208,1.974e-05,0.0,0 STARLINK-3725,1 52123U 22029AM  24216.17832883  .00001974  00000-0  14208-3 0  9992,2 52123  53.2159 168.5394 0001320  87.7799 272.3345 15.08835046132843,6917.896,95.438,540.674,538.847,0.0
52123.0,STARLINK-3725,PAYLOAD,2024-08-03 05:52:10,15.08837334,0.0001365,53.216,168.2424,92.9503,267.1645,0.00016238,2.297e-05,0.0,0 STARLINK-3725,1 52123U 22029AM  24216.24456719  .00002297  00000-0  16238-3 0  9994,2 52123  53.2160 168.2424 0001365  92.9503 267.1645 15.08837334132854,6917.889,95.438,540.698,538.809,0.0
52123.0,STARLINK-3725,PAYLOAD,2024-08-03 20:10:39,15.08839662,0.0001639,53.2181,165.5658,93.1272,266.9908,8.0522e-05,9.94e-06,0.0,0 STARLINK-3725,1 52123U 22029AM  24216.84073075  .00000994  00000-0  80522-4 0  9990,2 52123  53.2181 165.5658 0001639  93.1272 266.9908 15.08839662132941,6917.881,95.438,540.88,538.613,0.0
52123.0,STARLINK-3725,PAYLOAD,2024-08-04 04:07:34,15.08847529,0.0001461,53.2167,164.0796,93.3903,266.7257,0.0001376,1.903e-05,0.0,0 STARLINK-3725,1 52123U 22029AM  24217.17192318  .00001903  00000-0  13760-3 0  9999,2 52123  53.2167 164.0796 0001461  93.3903 266.7257 15.08847529132999,6917.857,95.437,540.733,538.712,0.0
52123.0,STARLINK-3725,PAYLOAD,2024-08-04 13:39:53,15.0884763,0.0001484,53.2171,162.2951,89.2464,270.8698,5.2504e-05,5.48e-06,0.0,0 STARLINK-3725,1 52123U 22029AM  24217.56936464  .00000548  00000-0  52504-4 0  9994,2 52123  53.2171 162.2951 0001484  89.2464 270.8698 15.08847630133054,6917.857,95.437,540.749,538.695,0.0
52123.0,STARLINK-3725,PAYLOAD,2024-08-05 03:58:19,15.08864372,0.000139,53.2163,159.6198,97.2572,262.8578,0.00017535,2.506e-05,0.0,0 STARLINK-3725,1 52123U 22029AM  24218.16550804  .00002506  00000-0  17535-3 0  9991,2 52123  53.2163 159.6198 0001390  97.2572 262.8578 15.08864372133143,6917.806,95.436,540.632,538.709,0.0
52123.0,STARLINK-3725,PAYLOAD,2024-08-05 13:30:40,15.08835875,0.0001583,53.2165,157.8354,84.6294,275.4879,-3.8301e-05,-8.97e-06,0.0,0 STARLINK-3725,1 52123U 22029AM  24218.56297142 -.00000897  00000-0 -38301-4 0  9996,2 52123  53.2165 157.8354 0001583  84.6294 275.4879 15.08835875133201,6917.893,95.438,540.853,538.663,0.0
